{
  "type": "FeatureCollection",
  "features": [
    {
      "type": "Feature",
      "properties": {
        "hash": "1c96bea3559bc032",
        "number": "",
        "street": "",
        "unit": "",
        "city": "",
        "district": "",
        "region": "NL",
        "postcode": "",
        "id": "synthetic-nl-001"
      },
      "geometry": {
        "type": "Point",
        "coordinates": [
          3.6462865254903827,
          51.578874981019325
        ]
      }
    },
    {
      "type": "Feature",
      "properties": {
        "hash": "02b9efc5c5056a0f",
        "number": "",
        "street": "",
        "unit": "",
        "city": "",
        "district": "",
        "region": "NL",
        "postcode": "",
        "id": "synthetic-nl-002"
      },
      "geometry": {
        "type": "Point",
        "coordinates": [
          6.285803634271765,
          53.0717379791962
        ]
      }
    },
    {
      "type": "Feature",
      "properties": {
        "hash": "c10d124d25401fe8",
        "number": "",
        "street": "",
        "unit": "",
        "city": "",
        "district": "",
        "region": "NL",
        "postcode": "",
        "id": "synthetic-nl-003"
      },
      "geometry": {
        "type": "Point",
        "coordinates": [
          5.743822508809936,
          51.883761952433744
        ]
      }
    },
    {
      "type": "Feature",
      "properties": {
        "hash": "6993cced108f1e1f",
        "number": "",
        "street": "",
        "unit": "",
        "city": "",
        "district": "",
        "region": "NL",
        "postcode": "",
        "id": "synthetic-nl-004"
      },
      "geometry": {
        "type": "Point",
        "coordinates": [
          6.578291364781888,
          52.33003086725061
        ]
      }
    },
    {
      "type": "Feature",
      "properties": {
        "hash": "4cc9db40d50f6a0e",
        "number": "",
        "street": "",
        "unit": "",
        "city": "",
        "district": "",
        "region": "NL",
        "postcode": "",
        "id": "synthetic-nl-005"
      },
      "geometry": {
        "type": "Point",
        "coordinates": [
          4.349047177830684,
          52.05404053972037
        ]
      }
    },
    {
      "type": "Feature",
      "properties": {
        "hash": "44fb8213d3dec879",
        "number": "",
        "street": "",
        "unit": "",
        "city": "",
        "district": "",
        "region": "NL",
        "postcode": "",
        "id": "synthetic-nl-006"
      },
      "geometry": {
        "type": "Point",
        "coordinates": [
          6.050082087469196,
          52.0074295252512
        ]
      }
    },
    {
      "type": "Feature",
      "properties": {
        "hash": "cc08fab5e443d85e",
        "number": "",
        "street": "",
        "unit": "",
        "city": "",
        "district": "",
        "region": "NL",
        "postcode": "",
        "id": "synthetic-nl-007"
      },
      "geometry": {
        "type": "Point",
        "coordinates": [
          4.206700542446936,
          51.550396711826984
        ]
      }
    },
    {
      "type": "Feature",
      "properties": {
        "hash": "5279140ab35ad243",
        "number": "",
        "street": "",
        "unit": "",
        "city": "",
        "district": "",
        "region": "NL",
        "postcode": "",
        "id": "synthetic-nl-008"
      },
      "geometry": {
        "type": "Point",
        "coordinates": [
          6.106582343373153,
          52.882254999804694
        ]
      }
    },
    {
      "type": "Feature",
      "properties": {
        "hash": "0900e47dbc5dbfd0",
        "number": "",
        "street": "",
        "unit": "",
        "city": "",
        "district": "",
        "region": "NL",
        "postcode": "",
        "id": "synthetic-nl-009"
      },
      "geometry": {
        "type": "Point",
        "coordinates": [
          5.694894849265956,
          52.712632310822755
        ]
      }
    },
    {
      "type": "Feature",
      "properties": {
        "hash": "bedde684f92d66a4",
        "number": "",
        "street": "",
        "unit": "",
        "city": "",
        "district": "",
        "region": "NL",
        "postcode": "",
        "id": "synthetic-nl-010"
      },
      "geometry": {
        "type": "Point",
        "coordinates": [
          4.725166427016957,
          52.00232829403046
        ]
      }
    },
    {
      "type": "Feature",
      "properties": {
        "hash": "d3b4d070f071c831",
        "number": "",
        "street": "",
        "unit": "",
        "city": "",
        "district": "",
        "region": "NL",
        "postcode": "",
        "id": "synthetic-nl-011"
      },
      "geometry": {
        "type": "Point",
        "coordinates": [
          5.67449670005214,
          52.46482830360461
        ]
      }
    },
    {
      "type": "Feature",
      "properties": {
        "hash": "31d161ae377aa1d9",
        "number": "",
        "street": "",
        "unit": "",
        "city": "",
        "district": "",
        "region": "NL",
        "postcode": "",
        "id": "synthetic-nl-012"
      },
      "geometry": {
        "type": "Point",
        "coordinates": [
          4.690239519887028,
          51.51384437451483
        ]
      }
    },
    {
      "type": "Feature",
      "properties": {
        "hash": "2f1212d86d6092af",
        "number": "",
        "street": "",
        "unit": "",
        "city": "",
        "district": "",
        "region": "NL",
        "postcode": "",
        "id": "synthetic-nl-013"
      },
      "geometry": {
        "type": "Point",
        "coordinates": [
          5.9611270281836095,
          52.31778605098123
        ]
      }
    },
    {
      "type": "Feature",
      "properties": {
        "hash": "04db3414843c26ef",
        "number": "",
        "street": "",
        "unit": "",
        "city": "",
        "district": "",
        "region": "NL",
        "postcode": "",
        "id": "synthetic-nl-014"
      },
      "geometry": {
        "type": "Point",
        "coordinates": [
          5.1453287642654875,
          51.6296273951391
        ]
      }
    },
    {
      "type": "Feature",
      "properties": {
        "hash": "4df762b2f0cb7faf",
        "number": "",
        "street": "",
        "unit": "",
        "city": "",
        "district": "",
        "region": "NL",
        "postcode": "",
        "id": "synthetic-nl-015"
      },
      "geometry": {
        "type": "Point",
        "coordinates": [
          3.7707731033000425,
          51.47405839137392
        ]
      }
    },
    {
      "type": "Feature",
      "properties": {
        "hash": "7a2466f6752411d4",
        "number": "",
        "street": "",
        "unit": "",
        "city": "",
        "district": "",
        "region": "NL",
        "postcode": "",
        "id": "synthetic-nl-016"
      },
      "geometry": {
        "type": "Point",
        "coordinates": [
          4.796613718550224,
          51.87788764569885
        ]
      }
    },
    {
      "type": "Feature",
      "properties": {
        "hash": "e14fcf887fa1640a",
        "number": "",
        "street": "",
        "unit": "",
        "city": "",
        "district": "",
        "region": "NL",
        "postcode": "",
        "id": "synthetic-nl-017"
      },
      "geometry": {
        "type": "Point",
        "coordinates": [
          4.100596643151718,
          51.95355762477525
        ]
      }
    },
    {
      "type": "Feature",
      "properties": {
        "hash": "7433e2d02263cf3f",
        "number": "",
        "street": "",
        "unit": "",
        "city": "",
        "district": "",
        "region": "NL",
        "postcode": "",
        "id": "synthetic-nl-018"
      },
      "geometry": {
        "type": "Point",
        "coordinates": [
          4.8170864146088785,
          52.084596314225465
        ]
      }
    },
    {
      "type": "Feature",
      "properties": {
        "hash": "663127c414f4425a",
        "number": "",
        "street": "",
        "unit": "",
        "city": "",
        "district": "",
        "region": "NL",
        "postcode": "",
        "id": "synthetic-nl-019"
      },
      "geometry": {
        "type": "Point",
        "coordinates": [
          5.217178411906553,
          52.877841481538916
        ]
      }
    },
    {
      "type": "Feature",
      "properties": {
        "hash": "02739cd20a0a3c0e",
        "number": "",
        "street": "",
        "unit": "",
        "city": "",
        "district": "",
        "region": "NL",
        "postcode": "",
        "id": "synthetic-nl-020"
      },
      "geometry": {
        "type": "Point",
        "coordinates": [
          5.754942022564753,
          53.24745732813269
        ]
      }
    },
    {
      "type": "Feature",
      "properties": {
        "hash": "0c84219bf75ac688",
        "number": "",
        "street": "",
        "unit": "",
        "city": "",
        "district": "",
        "region": "NL",
        "postcode": "",
        "id": "synthetic-nl-021"
      },
      "geometry": {
        "type": "Point",
        "coordinates": [
          4.086415760921264,
          51.5713612330327
        ]
      }
    },
    {
      "type": "Feature",
      "properties": {
        "hash": "f19f67a65aa43606",
        "number": "",
        "street": "",
        "unit": "",
        "city": "",
        "district": "",
        "region": "NL",
        "postcode": "",
        "id": "synthetic-nl-022"
      },
      "geometry": {
        "type": "Point",
        "coordinates": [
          5.194476458357251,
          52.965248299517214
        ]
      }
    },
    {
      "type": "Feature",
      "properties": {
        "hash": "7c8df712a1b6ff91",
        "number": "",
        "street": "",
        "unit": "",
        "city": "",
        "district": "",
        "region": "NL",
        "postcode": "",
        "id": "synthetic-nl-023"
      },
      "geometry": {
        "type": "Point",
        "coordinates": [
          6.320747289749353,
          53.245764574637285
        ]
      }
    },
    {
      "type": "Feature",
      "properties": {
        "hash": "de229314e2233c3a",
        "number": "",
        "street": "",
        "unit": "",
        "city": "",
        "district": "",
        "region": "NL",
        "postcode": "",
        "id": "synthetic-nl-024"
      },
      "geometry": {
        "type": "Point",
        "coordinates": [
          4.950314495051874,
          52.09984735847602
        ]
      }
    },
    {
      "type": "Feature",
      "properties": {
        "hash": "32aecbd92ecc061b",
        "number": "",
        "street": "",
        "unit": "",
        "city": "",
        "district": "",
        "region": "NL",
        "postcode": "",
        "id": "synthetic-nl-025"
      },
      "geometry": {
        "type": "Point",
        "coordinates": [
          5.628466096505376,
          52.624308276491
        ]
      }
    },
    {
      "type": "Feature",
      "properties": {
        "hash": "bf6cf4c09b78215f",
        "number": "",
        "street": "",
        "unit": "",
        "city": "",
        "district": "",
        "region": "NL",
        "postcode": "",
        "id": "synthetic-nl-026"
      },
      "geometry": {
        "type": "Point",
        "coordinates": [
          6.868246426121843,
          53.13731150563369
        ]
      }
    },
    {
      "type": "Feature",
      "properties": {
        "hash": "52291f4812ca559c",
        "number": "",
        "street": "",
        "unit": "",
        "city": "",
        "district": "",
        "region": "NL",
        "postcode": "",
        "id": "synthetic-nl-027"
      },
      "geometry": {
        "type": "Point",
        "coordinates": [
          5.93308364401249,
          52.67833539536738
        ]
      }
    },
    {
      "type": "Feature",
      "properties": {
        "hash": "e4a39a24a752e964",
        "number": "",
        "street": "",
        "unit": "",
        "city": "",
        "district": "",
        "region": "NL",
        "postcode": "",
        "id": "synthetic-nl-028"
      },
      "geometry": {
        "type": "Point",
        "coordinates": [
          5.947754786245779,
          52.21977196249739
        ]
      }
    },
    {
      "type": "Feature",
      "properties": {
        "hash": "d5961db92b8e7c34",
        "number": "",
        "street": "",
        "unit": "",
        "city": "",
        "district": "",
        "region": "NL",
        "postcode": "",
        "id": "synthetic-nl-029"
      },
      "geometry": {
        "type": "Point",
        "coordinates": [
          6.022030778948583,
          52.88541952137608
        ]
      }
    },
    {
      "type": "Feature",
      "properties": {
        "hash": "c37a9f8cc68f5376",
        "number": "",
        "street": "",
        "unit": "",
        "city": "",
        "district": "",
        "region": "NL",
        "postcode": "",
        "id": "synthetic-nl-030"
      },
      "geometry": {
        "type": "Point",
        "coordinates": [
          4.853210547507065,
          51.99143315056276
        ]
      }
    },
    {
      "type": "Feature",
      "properties": {
        "hash": "dcecf8099fc54530",
        "number": "",
        "street": "",
        "unit": "",
        "city": "",
        "district": "",
        "region": "NL",
        "postcode": "",
        "id": "synthetic-nl-031"
      },
      "geometry": {
        "type": "Point",
        "coordinates": [
          5.778577482967515,
          52.33893608244361
        ]
      }
    },
    {
      "type": "Feature",
      "properties": {
        "hash": "7eeabce3dd446480",
        "number": "",
        "street": "",
        "unit": "",
        "city": "",
        "district": "",
        "region": "NL",
        "postcode": "",
        "id": "synthetic-nl-032"
      },
      "geometry": {
        "type": "Point",
        "coordinates": [
          6.335116681400951,
          53.091846349352984
        ]
      }
    },
    {
      "type": "Feature",
      "properties": {
        "hash": "2735e92328adffb3",
        "number": "",
        "street": "",
        "unit": "",
        "city": "",
        "district": "",
        "region": "NL",
        "postcode": "",
        "id": "synthetic-nl-033"
      },
      "geometry": {
        "type": "Point",
        "coordinates": [
          5.42284678080162,
          51.447515583683526
        ]
      }
    },
    {
      "type": "Feature",
      "properties": {
        "hash": "839ed90cd437d3c6",
        "number": "",
        "street": "",
        "unit": "",
        "city": "",
        "district": "",
        "region": "NL",
        "postcode": "",
        "id": "synthetic-nl-034"
      },
      "geometry": {
        "type": "Point",
        "coordinates": [
          4.739387929849492,
          51.65953159839258
        ]
      }
    },
    {
      "type": "Feature",
      "properties": {
        "hash": "ff04c0b5399b1487",
        "number": "",
        "street": "",
        "unit": "",
        "city": "",
        "district": "",
        "region": "NL",
        "postcode": "",
        "id": "synthetic-nl-035"
      },
      "geometry": {
        "type": "Point",
        "coordinates": [
          5.642537450072527,
          52.68450001308525
        ]
      }
    },
    {
      "type": "Feature",
      "properties": {
        "hash": "2bdf6e21ee4a9c32",
        "number": "",
        "street": "",
        "unit": "",
        "city": "",
        "district": "",
        "region": "NL",
        "postcode": "",
        "id": "synthetic-nl-036"
      },
      "geometry": {
        "type": "Point",
        "coordinates": [
          6.264812894688103,
          52.35977692068216
        ]
      }
    },
    {
      "type": "Feature",
      "properties": {
        "hash": "e27285606676df0e",
        "number": "",
        "street": "",
        "unit": "",
        "city": "",
        "district": "",
        "region": "NL",
        "postcode": "",
        "id": "synthetic-nl-037"
      },
      "geometry": {
        "type": "Point",
        "coordinates": [
          5.840274790741553,
          50.829931094324074
        ]
      }
    },
    {
      "type": "Feature",
      "properties": {
        "hash": "191fdb17a6cc6f79",
        "number": "",
        "street": "",
        "unit": "",
        "city": "",
        "district": "",
        "region": "NL",
        "postcode": "",
        "id": "synthetic-nl-038"
      },
      "geometry": {
        "type": "Point",
        "coordinates": [
          4.673917481885595,
          52.30745028357931
        ]
      }
    },
    {
      "type": "Feature",
      "properties": {
        "hash": "1cf8fcb6dd949e44",
        "number": "",
        "street": "",
        "unit": "",
        "city": "",
        "district": "",
        "region": "NL",
        "postcode": "",
        "id": "synthetic-nl-039"
      },
      "geometry": {
        "type": "Point",
        "coordinates": [
          6.147022881470444,
          52.01307052028222
        ]
      }
    },
    {
      "type": "Feature",
      "properties": {
        "hash": "8c8c6fc881455044",
        "number": "",
        "street": "",
        "unit": "",
        "city": "",
        "district": "",
        "region": "NL",
        "postcode": "",
        "id": "synthetic-nl-040"
      },
      "geometry": {
        "type": "Point",
        "coordinates": [
          4.509770965790597,
          51.79258678157188
        ]
      }
    },
    {
      "type": "Feature",
      "properties": {
        "hash": "7d975046640e6305",
        "number": "",
        "street": "",
        "unit": "",
        "city": "",
        "district": "",
        "region": "NL",
        "postcode": "",
        "id": "synthetic-nl-041"
      },
      "geometry": {
        "type": "Point",
        "coordinates": [
          6.02809915163877,
          53.332127956465996
        ]
      }
    },
    {
      "type": "Feature",
      "properties": {
        "hash": "ffd47218194e112f",
        "number": "",
        "street": "",
        "unit": "",
        "city": "",
        "district": "",
        "region": "NL",
        "postcode": "",
        "id": "synthetic-nl-042"
      },
      "geometry": {
        "type": "Point",
        "coordinates": [
          5.989229856013086,
          51.37836809204182
        ]
      }
    },
    {
      "type": "Feature",
      "properties": {
        "hash": "02604d6bb48db63a",
        "number": "",
        "street": "",
        "unit": "",
        "city": "",
        "district": "",
        "region": "NL",
        "postcode": "",
        "id": "synthetic-nl-043"
      },
      "geometry": {
        "type": "Point",
        "coordinates": [
          6.006642503040286,
          51.951428536042556
        ]
      }
    },
    {
      "type": "Feature",
      "properties": {
        "hash": "ed3d5b25364d896d",
        "number": "",
        "street": "",
        "unit": "",
        "city": "",
        "district": "",
        "region": "NL",
        "postcode": "",
        "id": "synthetic-nl-044"
      },
      "geometry": {
        "type": "Point",
        "coordinates": [
          6.015898674741319,
          52.09832238686703
        ]
      }
    },
    {
      "type": "Feature",
      "properties": {
        "hash": "491c960f4c2b6bb1",
        "number": "",
        "street": "",
        "unit": "",
        "city": "",
        "district": "",
        "region": "NL",
        "postcode": "",
        "id": "synthetic-nl-045"
      },
      "geometry": {
        "type": "Point",
        "coordinates": [
          5.357798092091263,
          52.62805034045416
        ]
      }
    },
    {
      "type": "Feature",
      "properties": {
        "hash": "a6cf49522c883cb7",
        "number": "",
        "street": "",
        "unit": "",
        "city": "",
        "district": "",
        "region": "NL",
        "postcode": "",
        "id": "synthetic-nl-046"
      },
      "geometry": {
        "type": "Point",
        "coordinates": [
          6.0096013166172515,
          51.57638880055117
        ]
      }
    },
    {
      "type": "Feature",
      "properties": {
        "hash": "cb0523297e8d7285",
        "number": "",
        "street": "",
        "unit": "",
        "city": "",
        "district": "",
        "region": "NL",
        "postcode": "",
        "id": "synthetic-nl-047"
      },
      "geometry": {
        "type": "Point",
        "coordinates": [
          5.6569253039641705,
          52.986080165078285
        ]
      }
    },
    {
      "type": "Feature",
      "properties": {
        "hash": "f90fd99668524b0d",
        "number": "",
        "street": "",
        "unit": "",
        "city": "",
        "district": "",
        "region": "NL",
        "postcode": "",
        "id": "synthetic-nl-048"
      },
      "geometry": {
        "type": "Point",
        "coordinates": [
          6.56873045123641,
          52.93479158901319
        ]
      }
    },
    {
      "type": "Feature",
      "properties": {
        "hash": "c89c375081b9b9b5",
        "number": "",
        "street": "",
        "unit": "",
        "city": "",
        "district": "",
        "region": "NL",
        "postcode": "",
        "id": "synthetic-nl-049"
      },
      "geometry": {
        "type": "Point",
        "coordinates": [
          7.064408217125134,
          53.108864196339326
        ]
      }
    },
    {
      "type": "Feature",
      "properties": {
        "hash": "1dc5dfe833655541",
        "number": "",
        "street": "",
        "unit": "",
        "city": "",
        "district": "",
        "region": "NL",
        "postcode": "",
        "id": "synthetic-nl-050"
      },
      "geometry": {
        "type": "Point",
        "coordinates": [
          4.4116662841632,
          52.07418867232476
        ]
      }
    },
    {
      "type": "Feature",
      "properties": {
        "hash": "0b743439eb063ea7",
        "number": "",
        "street": "",
        "unit": "",
        "city": "",
        "district": "",
        "region": "NL",
        "postcode": "",
        "id": "synthetic-nl-051"
      },
      "geometry": {
        "type": "Point",
        "coordinates": [
          6.25363017292873,
          52.9301728889309
        ]
      }
    },
    {
      "type": "Feature",
      "properties": {
        "hash": "93d43b864026bb1b",
        "number": "",
        "street": "",
        "unit": "",
        "city": "",
        "district": "",
        "region": "NL",
        "postcode": "",
        "id": "synthetic-nl-052"
      },
      "geometry": {
        "type": "Point",
        "coordinates": [
          5.382064923609005,
          52.366946144761414
        ]
      }
    },
    {
      "type": "Feature",
      "properties": {
        "hash": "647b3bf4b1b2d6d9",
        "number": "",
        "street": "",
        "unit": "",
        "city": "",
        "district": "",
        "region": "NL",
        "postcode": "",
        "id": "synthetic-nl-053"
      },
      "geometry": {
        "type": "Point",
        "coordinates": [
          5.373177549038012,
          51.54042666394723
        ]
      }
    },
    {
      "type": "Feature",
      "properties": {
        "hash": "da05dae8066693f1",
        "number": "",
        "street": "",
        "unit": "",
        "city": "",
        "district": "",
        "region": "NL",
        "postcode": "",
        "id": "synthetic-nl-054"
      },
      "geometry": {
        "type": "Point",
        "coordinates": [
          5.5707703915899724,
          52.43093667317085
        ]
      }
    },
    {
      "type": "Feature",
      "properties": {
        "hash": "7b86a582b66cac6c",
        "number": "",
        "street": "",
        "unit": "",
        "city": "",
        "district": "",
        "region": "NL",
        "postcode": "",
        "id": "synthetic-nl-055"
      },
      "geometry": {
        "type": "Point",
        "coordinates": [
          5.4073359412965525,
          52.93713148356875
        ]
      }
    },
    {
      "type": "Feature",
      "properties": {
        "hash": "5260bd82bd8e550f",
        "number": "",
        "street": "",
        "unit": "",
        "city": "",
        "district": "",
        "region": "NL",
        "postcode": "",
        "id": "synthetic-nl-056"
      },
      "geometry": {
        "type": "Point",
        "coordinates": [
          4.87742437090838,
          52.64327535042389
        ]
      }
    },
    {
      "type": "Feature",
      "properties": {
        "hash": "380a7c0965e17559",
        "number": "",
        "street": "",
        "unit": "",
        "city": "",
        "district": "",
        "region": "NL",
        "postcode": "",
        "id": "synthetic-nl-057"
      },
      "geometry": {
        "type": "Point",
        "coordinates": [
          6.209424962521931,
          52.918967018203986
        ]
      }
    },
    {
      "type": "Feature",
      "properties": {
        "hash": "0692c0afc727fa1a",
        "number": "",
        "street": "",
        "unit": "",
        "city": "",
        "district": "",
        "region": "NL",
        "postcode": "",
        "id": "synthetic-nl-058"
      },
      "geometry": {
        "type": "Point",
        "coordinates": [
          6.1421601965591694,
          52.08016892275493
        ]
      }
    },
    {
      "type": "Feature",
      "properties": {
        "hash": "16a6a1bb702d730f",
        "number": "",
        "street": "",
        "unit": "",
        "city": "",
        "district": "",
        "region": "NL",
        "postcode": "",
        "id": "synthetic-nl-059"
      },
      "geometry": {
        "type": "Point",
        "coordinates": [
          4.812897499662045,
          52.74366664775011
        ]
      }
    },
    {
      "type": "Feature",
      "properties": {
        "hash": "24a7dbaede72f377",
        "number": "",
        "street": "",
        "unit": "",
        "city": "",
        "district": "",
        "region": "NL",
        "postcode": "",
        "id": "synthetic-nl-060"
      },
      "geometry": {
        "type": "Point",
        "coordinates": [
          4.807108151286423,
          52.15512083215111
        ]
      }
    },
    {
      "type": "Feature",
      "properties": {
        "hash": "73ddee81cd017341",
        "number": "",
        "street": "",
        "unit": "",
        "city": "",
        "district": "",
        "region": "NL",
        "postcode": "",
        "id": "synthetic-nl-061"
      },
      "geometry": {
        "type": "Point",
        "coordinates": [
          5.258857654456958,
          51.896480626186595
        ]
      }
    },
    {
      "type": "Feature",
      "properties": {
        "hash": "d050666219deb232",
        "number": "",
        "street": "",
        "unit": "",
        "city": "",
        "district": "",
        "region": "NL",
        "postcode": "",
        "id": "synthetic-nl-062"
      },
      "geometry": {
        "type": "Point",
        "coordinates": [
          4.9171315531282875,
          51.947445294895005
        ]
      }
    },
    {
      "type": "Feature",
      "properties": {
        "hash": "f524a25ac5ff4938",
        "number": "",
        "street": "",
        "unit": "",
        "city": "",
        "district": "",
        "region": "NL",
        "postcode": "",
        "id": "synthetic-nl-063"
      },
      "geometry": {
        "type": "Point",
        "coordinates": [
          4.847084096891502,
          52.477969585623654
        ]
      }
    },
    {
      "type": "Feature",
      "properties": {
        "hash": "d89319b98166ce5b",
        "number": "",
        "street": "",
        "unit": "",
        "city": "",
        "district": "",
        "region": "NL",
        "postcode": "",
        "id": "synthetic-nl-064"
      },
      "geometry": {
        "type": "Point",
        "coordinates": [
          4.453420341327119,
          52.163303604438305
        ]
      }
    },
    {
      "type": "Feature",
      "properties": {
        "hash": "06c97385f218fbeb",
        "number": "",
        "street": "",
        "unit": "",
        "city": "",
        "district": "",
        "region": "NL",
        "postcode": "",
        "id": "synthetic-nl-065"
      },
      "geometry": {
        "type": "Point",
        "coordinates": [
          5.157080814622813,
          51.739531701627925
        ]
      }
    },
    {
      "type": "Feature",
      "properties": {
        "hash": "eccc04a72a7c9e43",
        "number": "",
        "street": "",
        "unit": "",
        "city": "",
        "district": "",
        "region": "NL",
        "postcode": "",
        "id": "synthetic-nl-066"
      },
      "geometry": {
        "type": "Point",
        "coordinates": [
          5.783012055431133,
          52.470350443755365
        ]
      }
    },
    {
      "type": "Feature",
      "properties": {
        "hash": "da574864f7c58166",
        "number": "",
        "street": "",
        "unit": "",
        "city": "",
        "district": "",
        "region": "NL",
        "postcode": "",
        "id": "synthetic-nl-067"
      },
      "geometry": {
        "type": "Point",
        "coordinates": [
          5.388788755434183,
          52.837338166366514
        ]
      }
    },
    {
      "type": "Feature",
      "properties": {
        "hash": "0ad838142bd0fed3",
        "number": "",
        "street": "",
        "unit": "",
        "city": "",
        "district": "",
        "region": "NL",
        "postcode": "",
        "id": "synthetic-nl-068"
      },
      "geometry": {
        "type": "Point",
        "coordinates": [
          4.773487656079141,
          52.573183578060046
        ]
      }
    },
    {
      "type": "Feature",
      "properties": {
        "hash": "fce7101b85e5018c",
        "number": "",
        "street": "",
        "unit": "",
        "city": "",
        "district": "",
        "region": "NL",
        "postcode": "",
        "id": "synthetic-nl-069"
      },
      "geometry": {
        "type": "Point",
        "coordinates": [
          5.420449776299562,
          51.81871973790373
        ]
      }
    },
    {
      "type": "Feature",
      "properties": {
        "hash": "16f4ba4d7b4dd1d9",
        "number": "",
        "street": "",
        "unit": "",
        "city": "",
        "district": "",
        "region": "NL",
        "postcode": "",
        "id": "synthetic-nl-070"
      },
      "geometry": {
        "type": "Point",
        "coordinates": [
          6.3894312260040556,
          52.40608617908761
        ]
      }
    },
    {
      "type": "Feature",
      "properties": {
        "hash": "9164d63fb2284649",
        "number": "",
        "street": "",
        "unit": "",
        "city": "",
        "district": "",
        "region": "NL",
        "postcode": "",
        "id": "synthetic-nl-071"
      },
      "geometry": {
        "type": "Point",
        "coordinates": [
          6.399245572187786,
          51.961674985298096
        ]
      }
    },
    {
      "type": "Feature",
      "properties": {
        "hash": "390d9daaabc8c294",
        "number": "",
        "street": "",
        "unit": "",
        "city": "",
        "district": "",
        "region": "NL",
        "postcode": "",
        "id": "synthetic-nl-072"
      },
      "geometry": {
        "type": "Point",
        "coordinates": [
          6.02594559647384,
          52.43997313226059
        ]
      }
    },
    {
      "type": "Feature",
      "properties": {
        "hash": "092b40380b7c67dd",
        "number": "",
        "street": "",
        "unit": "",
        "city": "",
        "district": "",
        "region": "NL",
        "postcode": "",
        "id": "synthetic-nl-073"
      },
      "geometry": {
        "type": "Point",
        "coordinates": [
          5.315384368353579,
          53.073739655204406
        ]
      }
    },
    {
      "type": "Feature",
      "properties": {
        "hash": "e9ca4b3966ac5dab",
        "number": "",
        "street": "",
        "unit": "",
        "city": "",
        "district": "",
        "region": "NL",
        "postcode": "",
        "id": "synthetic-nl-074"
      },
      "geometry": {
        "type": "Point",
        "coordinates": [
          4.898953257823949,
          51.5216289226876
        ]
      }
    },
    {
      "type": "Feature",
      "properties": {
        "hash": "f76748f88be4dfb6",
        "number": "",
        "street": "",
        "unit": "",
        "city": "",
        "district": "",
        "region": "NL",
        "postcode": "",
        "id": "synthetic-nl-075"
      },
      "geometry": {
        "type": "Point",
        "coordinates": [
          6.446800065358892,
          52.47523170638274
        ]
      }
    },
    {
      "type": "Feature",
      "properties": {
        "hash": "0e0d8a3ea6cba3de",
        "number": "",
        "street": "",
        "unit": "",
        "city": "",
        "district": "",
        "region": "NL",
        "postcode": "",
        "id": "synthetic-nl-076"
      },
      "geometry": {
        "type": "Point",
        "coordinates": [
          4.908362312555097,
          52.23808176571087
        ]
      }
    },
    {
      "type": "Feature",
      "properties": {
        "hash": "ceda5bd35de41f85",
        "number": "",
        "street": "",
        "unit": "",
        "city": "",
        "district": "",
        "region": "NL",
        "postcode": "",
        "id": "synthetic-nl-077"
      },
      "geometry": {
        "type": "Point",
        "coordinates": [
          5.704089288392778,
          51.83559430502352
        ]
      }
    },
    {
      "type": "Feature",
      "properties": {
        "hash": "37f36d4ebacac387",
        "number": "",
        "street": "",
        "unit": "",
        "city": "",
        "district": "",
        "region": "NL",
        "postcode": "",
        "id": "synthetic-nl-078"
      },
      "geometry": {
        "type": "Point",
        "coordinates": [
          5.20002967259564,
          52.47320122440229
        ]
      }
    },
    {
      "type": "Feature",
      "properties": {
        "hash": "4d32b2b626786027",
        "number": "",
        "street": "",
        "unit": "",
        "city": "",
        "district": "",
        "region": "NL",
        "postcode": "",
        "id": "synthetic-nl-079"
      },
      "geometry": {
        "type": "Point",
        "coordinates": [
          4.877683404273652,
          51.60658453329544
        ]
      }
    },
    {
      "type": "Feature",
      "properties": {
        "hash": "6687c6055bada05d",
        "number": "",
        "street": "",
        "unit": "",
        "city": "",
        "district": "",
        "region": "NL",
        "postcode": "",
        "id": "synthetic-nl-080"
      },
      "geometry": {
        "type": "Point",
        "coordinates": [
          4.3688096082792764,
          51.534985929678754
        ]
      }
    },
    {
      "type": "Feature",
      "properties": {
        "hash": "16f5d858cb8b6dcf",
        "number": "",
        "street": "",
        "unit": "",
        "city": "",
        "district": "",
        "region": "NL",
        "postcode": "",
        "id": "synthetic-nl-081"
      },
      "geometry": {
        "type": "Point",
        "coordinates": [
          5.0959977903920715,
          52.466838172612825
        ]
      }
    },
    {
      "type": "Feature",
      "properties": {
        "hash": "135f8fe1af933e56",
        "number": "",
        "street": "",
        "unit": "",
        "city": "",
        "district": "",
        "region": "NL",
        "postcode": "",
        "id": "synthetic-nl-082"
      },
      "geometry": {
        "type": "Point",
        "coordinates": [
          5.329283536938184,
          51.468208982127265
        ]
      }
    },
    {
      "type": "Feature",
      "properties": {
        "hash": "fe4a5ab17ceb42ec",
        "number": "",
        "street": "",
        "unit": "",
        "city": "",
        "district": "",
        "region": "NL",
        "postcode": "",
        "id": "synthetic-nl-083"
      },
      "geometry": {
        "type": "Point",
        "coordinates": [
          7.110940549749209,
          53.19151971499676
        ]
      }
    },
    {
      "type": "Feature",
      "properties": {
        "hash": "ae4f71fd92eba0a9",
        "number": "",
        "street": "",
        "unit": "",
        "city": "",
        "district": "",
        "region": "NL",
        "postcode": "",
        "id": "synthetic-nl-084"
      },
      "geometry": {
        "type": "Point",
        "coordinates": [
          6.0953819529097935,
          53.141756710254626
        ]
      }
    },
    {
      "type": "Feature",
      "properties": {
        "hash": "c93d0ba20fd243f6",
        "number": "",
        "street": "",
        "unit": "",
        "city": "",
        "district": "",
        "region": "NL",
        "postcode": "",
        "id": "synthetic-nl-085"
      },
      "geometry": {
        "type": "Point",
        "coordinates": [
          5.659138224825755,
          53.18976542380299
        ]
      }
    },
    {
      "type": "Feature",
      "properties": {
        "hash": "386f342eef248f2d",
        "number": "",
        "street": "",
        "unit": "",
        "city": "",
        "district": "",
        "region": "NL",
        "postcode": "",
        "id": "synthetic-nl-086"
      },
      "geometry": {
        "type": "Point",
        "coordinates": [
          5.031800152686759,
          51.87939609164085
        ]
      }
    },
    {
      "type": "Feature",
      "properties": {
        "hash": "7c199414c607c51e",
        "number": "",
        "street": "",
        "unit": "",
        "city": "",
        "district": "",
        "region": "NL",
        "postcode": "",
        "id": "synthetic-nl-087"
      },
      "geometry": {
        "type": "Point",
        "coordinates": [
          5.8508273967369435,
          52.04882996384056
        ]
      }
    },
    {
      "type": "Feature",
      "properties": {
        "hash": "7ae2df211029b1d3",
        "number": "",
        "street": "",
        "unit": "",
        "city": "",
        "district": "",
        "region": "NL",
        "postcode": "",
        "id": "synthetic-nl-088"
      },
      "geometry": {
        "type": "Point",
        "coordinates": [
          5.982206859062417,
          50.86018216494677
        ]
      }
    },
    {
      "type": "Feature",
      "properties": {
        "hash": "a4e0c10b1927adb8",
        "number": "",
        "street": "",
        "unit": "",
        "city": "",
        "district": "",
        "region": "NL",
        "postcode": "",
        "id": "synthetic-nl-089"
      },
      "geometry": {
        "type": "Point",
        "coordinates": [
          6.490917553507099,
          52.447118361522584
        ]
      }
    },
    {
      "type": "Feature",
      "properties": {
        "hash": "b68798e8de84fab1",
        "number": "",
        "street": "",
        "unit": "",
        "city": "",
        "district": "",
        "region": "NL",
        "postcode": "",
        "id": "synthetic-nl-090"
      },
      "geometry": {
        "type": "Point",
        "coordinates": [
          5.255312696653493,
          52.65331124651207
        ]
      }
    },
    {
      "type": "Feature",
      "properties": {
        "hash": "8ad5b5adb0d8b8fc",
        "number": "",
        "street": "",
        "unit": "",
        "city": "",
        "district": "",
        "region": "NL",
        "postcode": "",
        "id": "synthetic-nl-091"
      },
      "geometry": {
        "type": "Point",
        "coordinates": [
          4.710213211799162,
          52.649387344346685
        ]
      }
    },
    {
      "type": "Feature",
      "properties": {
        "hash": "3ec52a3e6a01fa11",
        "number": "",
        "street": "",
        "unit": "",
        "city": "",
        "district": "",
        "region": "NL",
        "postcode": "",
        "id": "synthetic-nl-092"
      },
      "geometry": {
        "type": "Point",
        "coordinates": [
          6.486009498261153,
          52.08444270294557
        ]
      }
    },
    {
      "type": "Feature",
      "properties": {
        "hash": "8956857d0a29063e",
        "number": "",
        "street": "",
        "unit": "",
        "city": "",
        "district": "",
        "region": "NL",
        "postcode": "",
        "id": "synthetic-nl-093"
      },
      "geometry": {
        "type": "Point",
        "coordinates": [
          4.479822123668493,
          51.7194700151628
        ]
      }
    },
    {
      "type": "Feature",
      "properties": {
        "hash": "05ff35cb3e92d047",
        "number": "",
        "street": "",
        "unit": "",
        "city": "",
        "district": "",
        "region": "NL",
        "postcode": "",
        "id": "synthetic-nl-094"
      },
      "geometry": {
        "type": "Point",
        "coordinates": [
          5.051298478843927,
          51.97375836584321
        ]
      }
    },
    {
      "type": "Feature",
      "properties": {
        "hash": "bf75dfb65052510c",
        "number": "",
        "street": "",
        "unit": "",
        "city": "",
        "district": "",
        "region": "NL",
        "postcode": "",
        "id": "synthetic-nl-095"
      },
      "geometry": {
        "type": "Point",
        "coordinates": [
          6.1820742794213,
          51.9681116975115
        ]
      }
    },
    {
      "type": "Feature",
      "properties": {
        "hash": "ad94ee31b99195bb",
        "number": "",
        "street": "",
        "unit": "",
        "city": "",
        "district": "",
        "region": "NL",
        "postcode": "",
        "id": "synthetic-nl-096"
      },
      "geometry": {
        "type": "Point",
        "coordinates": [
          6.393129986583482,
          53.10750316703854
        ]
      }
    },
    {
      "type": "Feature",
      "properties": {
        "hash": "4d730c93cba5cb0d",
        "number": "",
        "street": "",
        "unit": "",
        "city": "",
        "district": "",
        "region": "NL",
        "postcode": "",
        "id": "synthetic-nl-097"
      },
      "geometry": {
        "type": "Point",
        "coordinates": [
          6.887170095225887,
          52.42686030875513
        ]
      }
    },
    {
      "type": "Feature",
      "properties": {
        "hash": "f06974ce23ffdf06",
        "number": "",
        "street": "",
        "unit": "",
        "city": "",
        "district": "",
        "region": "NL",
        "postcode": "",
        "id": "synthetic-nl-098"
      },
      "geometry": {
        "type": "Point",
        "coordinates": [
          5.581898571909591,
          52.723679357314
        ]
      }
    },
    {
      "type": "Feature",
      "properties": {
        "hash": "e0d27e9919be0f25",
        "number": "",
        "street": "",
        "unit": "",
        "city": "",
        "district": "",
        "region": "NL",
        "postcode": "",
        "id": "synthetic-nl-099"
      },
      "geometry": {
        "type": "Point",
        "coordinates": [
          6.273501974901821,
          52.99905111255478
        ]
      }
    },
    {
      "type": "Feature",
      "properties": {
        "hash": "13ee17bf2b997c0d",
        "number": "",
        "street": "",
        "unit": "",
        "city": "",
        "district": "",
        "region": "NL",
        "postcode": "",
        "id": "synthetic-nl-100"
      },
      "geometry": {
        "type": "Point",
        "coordinates": [
          6.623389229435393,
          52.43932872150113
        ]
      }
    }
  ]
}
